48779,ONEWEB-0229,2021,109.46,148.0,+,87.91,Active,1,LEO,Russia,UK,Commercial,Communications,Soyuz,1 48779U 21045N   24325.13314758  .00001191  00000+0  31289-2 0  9991,2 48779  87.9092  13.4771 0002037  96.3883 263.7480 13.15541211168935,13.15541211,0.0002037,LEO
48780,ONEWEB-0228,2021,109.46,148.0,+,87.91,Active,1,LEO,Russia,UK,Commercial,Communications,Soyuz,1 48780U 21045P   24325.54590876 -.00000321  00000+0 -88732-3 0  9997,2 48780  87.9090  13.3735 0001864  92.9440 267.1904 13.15547282168902,13.15547282,0.0001864,LEO
48781,ONEWEB-0232,2021,109.46,148.0,+,87.91,Active,1,LEO,Russia,UK,Commercial,Communications,Soyuz,1 48781U 21045Q   24325.14105524 -.00004769  00000+0 -12704-1 0  9990,2 48781  87.9088  13.4608 0001888  86.7845 273.3501 13.15574625169179,13.15574625,0.0001888,LEO
48782,ONEWEB-0231,2021,109.46,148.0,+,87.91,Active,1,LEO,Russia,UK,Commercial,Communications,Soyuz,1 48782U 21045R   24325.57523150  .00000116  00000+0  27540-3 0  9993,2 48782  87.9101  13.4282 0001887  88.3116 271.8231 13.15546653168927,13.15546653,0.0001887,LEO
48783,ONEWEB-0234,2021,109.46,148.0,+,87.91,Active,1,LEO,Russia,UK,Commercial,Communications,Soyuz,1 48783U 21045S   24325.13869474  .00000182  00000+0  45046-3 0  9992,2 48783  87.9095  13.4619 0001196 140.0913 220.0306 13.15546911169004,13.15546911,0.0001196,LEO
48784,ONEWEB-0238,2021,109.46,148.0,+,87.91,Active,1,LEO,Russia,UK,Commercial,Communications,Soyuz,1 48784U 21045T   24325.09273224 -.00000304  00000+0 -84048-3 0  9993,2 48784  87.9095  13.4877 0001765 102.2370 257.8958 13.15548835168894,13.15548835,0.0001765,LEO
48785,ONEWEB-0240,2021,109.46,148.0,+,87.91,Active,1,LEO,Russia,UK,Commercial,Communications,Soyuz,1 48785U 21045U   24325.55858085 -.00000205  00000+0 -57842-3 0  9991,2 48785  87.9092  13.3616 0001587  83.8864 276.2447 13.15545441168984,13.15545441,0.0001587,LEO
48786,ONEWEB-0246,2021,109.46,148.0,+,87.91,Active,1,LEO,Russia,UK,Commercial,Communications,Soyuz,1 48786U 21045V   24325.09669688 -.00000424  00000+0 -11606-2 0  9990,2 48786  87.9092  13.4603 0001986  93.3117 266.8240 13.15548029168792,13.15548029,0.0001986,LEO
